OBJECT_NAME,OBJECT_ID,EPOCH,MEAN_MOTION,ECCENTRICITY,INCLINATION,RA_OF_ASC_NODE,ARG_OF_PERICENTER,MEAN_ANOMALY,EPHEMERIS_TYPE,CLASSIFICATION_TYPE,NORAD_CAT_ID,ELEMENT_SET_NO,REV_AT_EPOCH,BSTAR,MEAN_MOTION_DOT,MEAN_MOTION_DDOT
DUBAISAT-1,2009-041B,2026-06-20T08:16:47.847072,14.75126564,.0011555,98.0056,304.5680,64.7840,295.4565,0,U,35682,999,90556,.90158E-4,.558E-5,0
OCEANSAT-2,2009-051A,2026-06-21T04:51:57.872160,13.99663407,.001554,98.2323,158.6537,223.7798,136.2138,0,U,35931,999,87989,-.10732E-3,-.195E-5,0
WORLDVIEW-2 (WV-2),2009-055A,2026-06-20T10:25:27.171264,14.37900227,.0003904,98.4736,244.8392,197.1110,162.9946,0,U,35946,999,87611,.39024E-4,.74E-6,0
SMOS,2009-059A,2026-06-20T10:56:22.909344,14.39774008,.0001324,98.4426,358.7428,87.9186,272.2154,0,U,36036,999,87392,.67815E-4,.169E-5,0
YAOGAN-7,2009-069A,2026-06-20T09:44:43.268640,14.78012533,.0025376,98.0068,57.2532,31.7797,328.4939,0,U,36110,999,89010,.54142E-4,.34E-5,0
TANDEM-X,2010-030A,2026-06-19T11:55:50.861280,15.19151444,.0001891,97.4451,178.1721,87.7400,272.4051,0,U,36605,999,88699,.12414064E-4,.194E-5,0
CARTOSAT-2B,2010-035A,2026-06-21T04:43:29.034048,14.78665420,.0011576,97.9945,222.7217,170.7644,189.3782,0,U,36795,999,86044,.48375E-4,.302E-5,0
YAOGAN-10,2010-038A,2026-06-21T04:42:58.820832,14.85359744,.0001742,97.8975,195.5694,86.7657,3.9199,0,U,36834,999,85780,.14169E-3,.1165E-4,0
COSMO-SKYMED 4,2010-060A,2026-06-21T03:45:50.443776,14.82157204,.0001455,97.8891,355.6985,84.9270,275.2110,0,U,37216,999,84515,.6693E-4,.481E-5,0
RESOURCESAT-2,2011-015A,2026-06-20T11:13:01.932672,14.21600287,.0010271,98.7643,238.8867,244.9511,115.0601,0,U,37387,999,78664,.2096E-4,.2E-7,0
HAIYANG-2A,2011-043A,2026-06-21T04:30:44.963424,13.74332728,.0005807,99.3397,174.7759,83.3893,276.7917,0,U,37781,999,74720,.16525E-3,.112E-5,0
RASAT,2011-044D,2026-06-21T04:52:48.582912,14.68169237,.0020568,98.0573,263.5389,175.9638,271.1854,0,U,37791,999,79377,.55879E-4,.273E-5,0
SRMSAT,2011-058D,2026-06-20T08:25:13.490976,14.11576136,.0011727,19.9729,40.3181,238.5935,283.9086,0,U,37841,999,75826,.47312E-4,.352E-5,0
PLEIADES 1A,2011-076F,2026-06-21T04:15:31.627296,14.58532491,.0001711,98.1971,247.2271,95.6916,348.7708,0,U,38012,999,77257,.20682E-4,.5E-6,0
ZIYUAN 1-02C (ZY 1-02C),2011-079A,2026-06-21T04:26:04.189344,14.38217020,.0005304,98.4066,239.4100,302.2203,143.0549,0,U,38038,999,75978,.53097E-4,.118E-5,0
ARIRANG-3 (KOMPSAT-3),2012-025B,2026-06-21T03:19:30.050400,14.62208950,.0006781,98.1172,129.5303,99.5702,260.6266,0,U,38338,999,75192,.68691E-4,.299E-5,0
EXACTVIEW-1 (ADS-1B),2012-039C,2026-06-20T07:55:37.784352,14.24985343,.0011328,98.9781,288.7915,157.6726,202.4948,0,U,38709,999,72315,.57653E-4,.89E-6,0
SPOT 6,2012-047A,2026-06-21T04:14:26.772864,14.58564603,.0001534,98.2113,239.4395,93.7642,266.3733,0,U,38755,999,73363,.26778E-4,.79E-6,0
PLEIADES 1B,2012-068A,2026-06-21T04:41:41.968896,14.58562370,.000167,98.1941,247.1924,91.6802,268.4588,0,U,39019,999,72143,.31999E-4,.103E-5,0
GOKTURK 2,2012-073A,2026-06-21T03:35:22.887744,14.75545362,.0001433,97.6818,9.3819,56.6154,303.5193,0,U,39030,999,72509,.27918E-4,.143E-5,0
LANDSAT 8,2013-008A,2026-06-20T10:59:52.642752,14.57096364,.0001358,98.2301,241.5547,93.7192,266.4162,0,U,39084,999,69837,.61084E-4,.23E-5,0
SARAL,2013-009A,2026-06-20T11:06:09.955872,14.32856589,.0000619,98.5558,357.9883,282.5589,77.5526,0,U,39086,999,69607,.32654E-4,.45E-6,0
GAOFEN-1,2013-018A,2026-06-21T04:43:23.591712,14.76539440,.0015743,97.9088,244.1836,252.1197,107.8296,0,U,39150,999,70883,.14902E-4,.53E-6,0
VNREDSAT 1,2013-021B,2026-06-21T04:29:54.403008,14.64860291,.0001721,97.9072,225.4506,88.9086,271.2314,0,U,39160,999,70087,.85714E-4,.413E-5,0
ARIRANG-5 (KOMPSAT-5),2013-042A,2026-06-21T03:45:35.138016,15.04494959,.0005367,97.6201,358.8013,111.6189,248.5609,0,U,39227,999,70445,.1473E-4,.146E-5,0
SKYSAT-A,2013-066C,2026-06-19T16:54:18.879552,15.12985941,.0019939,97.3811,220.0216,308.1910,51.7525,0,U,39418,999,68886,.12045578E-3,.2071E-4,0
DUBAISAT-2,2013-066D,2026-06-21T04:17:30.420384,15.10209036,.0011871,97.4573,162.2184,28.0122,332.1745,0,U,39419,999,68699,.24532E-3,.3952E-4,0
GPM-CORE,2014-009C,2026-06-20T10:43:19.802208,15.44632575,.0011702,64.9722,297.2099,252.7565,107.2295,0,U,39574,999,69831,.21311E-3,.9759E-4,0
SENTINEL-1A,2014-016A,2026-06-21T04:58:47.316576,14.59200581,.0001401,98.1781,179.6818,82.6670,277.4689,0,U,39634,999,65060,.67059E-4,.27E-5,0
KAZEOSAT 1,2014-024A,2026-06-21T04:26:04.046784,14.42081019,.0001269,98.3200,244.5330,77.9759,282.1573,0,U,39731,999,63913,.58729E-5,-.23E-6,0
ALOS-2,2014-029A,2026-06-21T04:43:52.790592,14.79466436,.0001621,97.9219,269.3033,92.8155,267.3242,0,U,39766,999,65217,.12234E-3,.862E-5,0
